[{"OBJECT_NAME":"PROTOMETHEE","OBJECT_ID":"2023-174BT","EPOCH":"2026-03-09T23:28:08.029344","MEAN_MOTION":15.30202663,"ECCENTRICITY":0.00088339,"INCLINATION":97.3826,"RA_OF_ASC_NODE":147.9552,"ARG_OF_PERICENTER":148.5993,"MEAN_ANOMALY":211.5776,"EPHEMERIS_TYPE":0,"CLASSIFICATION_TYPE":"U","NORAD_CAT_ID":58321,"ELEMENT_SET_NO":999,"REV_AT_EPOCH":12979,"BSTAR":0.00015715731,"MEAN_MOTION_DOT":4.52e-5,"MEAN_MOTION_DDOT":0},{"OBJECT_NAME":"STARLINK-32554","OBJECT_ID":"2024-222Y","EPOCH":"2026-03-09T10:52:07.379616","MEAN_MOTION":15.27605364,"ECCENTRICITY":7.41e-6,"INCLINATION":42.9989,"RA_OF_ASC_NODE":137.4392,"ARG_OF_PERICENTER":293.9998,"MEAN_ANOMALY":66.0845,"EPHEMERIS_TYPE":0,"CLASSIFICATION_TYPE":"U","NORAD_CAT_ID":62136,"ELEMENT_SET_NO":999,"REV_AT_EPOCH":7276,"BSTAR":0.0013847958,"MEAN_MOTION_DOT":0.00038071,"MEAN_MOTION_DDOT":0}]
